{
    "links": {
        "self": "http://www.neowsapp.com/rest/v1/neo/3667125?api_key=iIulBulltgU6a56xZRHN4H3l9WmuAYTsLGpBGhQ2"
    },
    "id": "3667125",
    "neo_reference_id": "3667125",
    "name": "(2014 FY56)",
    "designation": "2014 FY56",
    "nasa_jpl_url": "http://ssd.jpl.nasa.gov/sbdb.cgi?sstr=3667125",
    "absolute_magnitude_h": 21.3,
    "estimated_diameter": {
        "kilometers": {
            "estimated_diameter_min": 0.1460679643,
            "estimated_diameter_max": 0.3266178974
        },
        "meters": {
            "estimated_diameter_min": 146.0679642714,
            "estimated_diameter_max": 326.6178974458
        },
        "miles": {
            "estimated_diameter_min": 0.090762397,
            "estimated_diameter_max": 0.2029508896
        },
        "feet": {
            "estimated_diameter_min": 479.2256199,
            "estimated_diameter_max": 1071.581062656
        }
    },
    "is_potentially_hazardous_asteroid": false,
    "close_approach_data": [
        {
            "close_approach_date": "2013-10-21",
            "close_approach_date_full": "2013-Oct-21 20:54",
            "epoch_date_close_approach": 1382388840000,
            "relative_velocity": {
                "kilometers_per_second": "23.7159435614",
                "kilometers_per_hour": "85377.3968209295",
                "miles_per_hour": "53050.194152427"
            },
            "miss_distance": {
                "astronomical": "0.4239292282",
                "lunar": "164.9084697698",
                "kilometers": "63418909.569463934",
                "miles": "39406683.0942889292"
            },
            "orbiting_body": "Earth"
        }
    ],
    "orbital_data": {
        "orbit_id": "4",
        "orbit_determination_date": "2017-04-06 08:41:48",
        "first_observation_date": "2014-03-30",
        "last_observation_date": "2014-04-08",
        "data_arc_in_days": 9,
        "observations_used": 16,
        "orbit_uncertainty": "8",
        "minimum_orbit_intersection": ".247865",
        "jupiter_tisserand_invariant": "3.886",
        "epoch_osculation": "2456752.5",
        "eccentricity": ".3842464601295605",
        "semi_major_axis": "1.729362101638396",
        "inclination": "34.47156963452785",
        "ascending_node_longitude": "25.99404600129633",
        "orbital_period": "830.6677178809556",
        "perihelion_distance": "1.064860835801625",
        "perihelion_argument": "66.77058295908336",
        "aphelion_distance": "2.393863367475167",
        "perihelion_time": "2456631.048958735285",
        "mean_anomaly": "52.63521612087413",
        "mean_motion": ".4333862894279373",
        "equinox": "J2000",
        "orbit_class": {
            "orbit_class_type": "AMO",
            "orbit_class_description": "Near-Earth asteroid orbits similar to that of 1221 Amor",
            "orbit_class_range": "1.017 AU < q (perihelion) < 1.3 AU"
        }
    },
    "is_sentry_object": false
}